[{"OBJECT_NAME":"CUBESAT XI-IV (CO-57)","OBJECT_ID":"2003-031J","EPOCH":"2026-03-09T22:11:01.387104","MEAN_MOTION":14.23561441,"ECCENTRICITY":0.00104004,"INCLINATION":98.681,"RA_OF_ASC_NODE":78.5124,"ARG_OF_PERICENTER":128.1826,"MEAN_ANOMALY":232.0291,"EPHEMERIS_TYPE":0,"CLASSIFICATION_TYPE":"U","NORAD_CAT_ID":27848,"ELEMENT_SET_NO":999,"REV_AT_EPOCH":17725,"BSTAR":0.00017577502,"MEAN_MOTION_DOT":3.57e-6,"MEAN_MOTION_DDOT":0},{"OBJECT_NAME":"METEOR 2-8 DEB","OBJECT_ID":"1982-025N","EPOCH":"2026-02-28T11:15:25.148448","MEAN_MOTION":14.18804473,"ECCENTRICITY":0.0015737,"INCLINATION":82.5158,"RA_OF_ASC_NODE":333.8074,"ARG_OF_PERICENTER":267.1196,"MEAN_ANOMALY":92.8183,"EPHEMERIS_TYPE":0,"CLASSIFICATION_TYPE":"U","NORAD_CAT_ID":36328,"ELEMENT_SET_NO":999,"REV_AT_EPOCH":65282,"BSTAR":0.0016868509,"MEAN_MOTION_DOT":3.525e-5,"MEAN_MOTION_DDOT":0}]
